{"type": "FeatureCollection", "features": [{"type": "Feature", "properties": {"norad_id": 26766, "name": "INTELSAT 10 (IS-10)", "group": "intelsat", "lat": -8.288197544772094, "lon": -12.581663319460185, "alt_km": 36110.40491061709, "timestamp": "2025-12-09T07:41:32.870762+00:00", "meta": {"OBJECT_NAME": "INTELSAT 10 (IS-10)", "OBJECT_ID": "2001-019A", "EPOCH": "2025-12-08T12:50:38.847840", "MEAN_MOTION": 0.99078973, "ECCENTRICITY": 0.0007853, "INCLINATION": 8.6199, "RA_OF_ASC_NODE": 61.1985, "ARG_OF_PERICENTER": 221.9209, "MEAN_ANOMALY": 143.9126, "EPHEMERIS_TYPE": 0, "CLASSIFICATION_TYPE": "U", "NORAD_CAT_ID": 26766, "ELEMENT_SET_NO": 999, "REV_AT_EPOCH": 4369, "BSTAR": 0, "MEAN_MOTION_DOT": -2.74e-06, "MEAN_MOTION_DDOT": 0}, "tle": {"line1": "1 26766U 01019A   25342.53517185 -.00000274  00000+0  00000+0 0  9991", "line2": "2 26766   8.6199  61.1985 0007853 221.9209 143.9126  0.99078973 43690"}}, "geometry": {"type": "Point", "coordinates": [-12.581663319460185, -8.288197544772094]}}, {"type": "Feature", "properties": {"norad_id": 26900, "name": "INTELSAT 902 (IS-902)", "group": "intelsat", "lat": 5.285599859394998, "lon": 143.37689627028257, "alt_km": 35791.667400362014, "timestamp": "2025-12-09T07:41:32.870788+00:00", "meta": {"OBJECT_NAME": "INTELSAT 902 (IS-902)", "OBJECT_ID": "2001-039A", "EPOCH": "2025-12-01T16:59:59.311968", "MEAN_MOTION": 1.00270327, "ECCENTRICITY": 0.00043097, "INCLINATION": 5.6187, "RA_OF_ASC_NODE": 74.2002, "ARG_OF_PERICENTER": 175.119, "MEAN_ANOMALY": 26.3816, "EPHEMERIS_TYPE": 0, "CLASSIFICATION_TYPE": "U", "NORAD_CAT_ID": 26900, "ELEMENT_SET_NO": 999, "REV_AT_EPOCH": 8871, "BSTAR": 0, "MEAN_MOTION_DOT": -2.63e-06, "MEAN_MOTION_DDOT": 0}, "tle": {"line1": "1 26900U 01039A   25335.70832537 -.00000263  00000+0  00000+0 0  9993", "line2": "2 26900   5.6187  74.2002 0004309 175.1190  26.3816  1.00270327 88713"}}, "geometry": {"type": "Point", "coordinates": [143.37689627028257, 5.285599859394998]}}, {"type": "Feature", "properties": {"norad_id": 27380, "name": "INTELSAT 904 (IS-904)", "group": "intelsat", "lat": 6.449802297240243, "lon": 162.14597703812225, "alt_km": 35789.7477603271, "timestamp": "2025-12-09T07:41:32.870806+00:00", "meta": {"OBJECT_NAME": "INTELSAT 904 (IS-904)", "OBJECT_ID": "2002-007A", "EPOCH": "2025-12-08T15:09:58.269024", "MEAN_MOTION": 1.00268358, "ECCENTRICITY": 0.0001612, "INCLINATION": 6.4433, "RA_OF_ASC_NODE": 71.4765, "ARG_OF_PERICENTER": 211.5706, "MEAN_ANOMALY": 350.5417, "EPHEMERIS_TYPE": 0, "CLASSIFICATION_TYPE": "U", "NORAD_CAT_ID": 27380, "ELEMENT_SET_NO": 999, "REV_AT_EPOCH": 8717, "BSTAR": 0, "MEAN_MOTION_DOT": -2.26e-06, "MEAN_MOTION_DDOT": 0}, "tle": {"line1": "1 27380U 02007A   25342.63192441 -.00000226  00000+0  00000+0 0  9994", "line2": "2 27380   6.4433  71.4765 0001612 211.5706 350.5417  1.00268358 87175"}}, "geometry": {"type": "Point", "coordinates": [162.14597703812225, 6.449802297240243]}}, {"type": "Feature", "properties": {"norad_id": 27426, "name": "DIRECTV 5 (TEMPO 1)", "group": "intelsat", "lat": 0.472359858918496, "lon": 83.57670570743664, "alt_km": 35802.06223891005, "timestamp": "2025-12-09T07:41:32.870819+00:00", "meta": {"OBJECT_NAME": "DIRECTV 5 (TEMPO 1)", "OBJECT_ID": "2002-023A", "EPOCH": "2025-12-08T21:38:25.309248", "MEAN_MOTION": 1.00271923, "ECCENTRICITY": 0.00039076, "INCLINATION": 4.3924, "RA_OF_ASC_NODE": 77.6963, "ARG_OF_PERICENTER": 199.5007, "MEAN_ANOMALY": 15.1924, "EPHEMERIS_TYPE": 0, "CLASSIFICATION_TYPE": "U", "NORAD_CAT_ID": 27426, "ELEMENT_SET_NO": 999, "REV_AT_EPOCH": 8621, "BSTAR": 0, "MEAN_MOTION_DOT": -5.6e-07, "MEAN_MOTION_DDOT": 0}, "tle": {"line1": "1 27426U 02023A   25342.90168182 -.00000056  00000+0  00000+0 0  9999", "line2": "2 27426   4.3924  77.6963 0003907 199.5007  15.1924  1.00271923 86217"}}, "geometry": {"type": "Point", "coordinates": [83.57670570743664, 0.472359858918496]}}, {"type": "Feature", "properties": {"norad_id": 27438, "name": "INTELSAT 905 (IS-905)", "group": "intelsat", "lat": -1.6657756411417786, "lon": 56.59657659685003, "alt_km": 35797.43488555041, "timestamp": "2025-12-09T07:41:32.870833+00:00", "meta": {"OBJECT_NAME": "INTELSAT 905 (IS-905)", "OBJECT_ID": "2002-027A", "EPOCH": "2025-12-08T12:00:17.267040", "MEAN_MOTION": 1.00271271, "ECCENTRICITY": 0.00028954, "INCLINATION": 6.2751, "RA_OF_ASC_NODE": 72.1034, "ARG_OF_PERICENTER": 189.9537, "MEAN_ANOMALY": 218.3132, "EPHEMERIS_TYPE": 0, "CLASSIFICATION_TYPE": "U", "NORAD_CAT_ID": 27438, "ELEMENT_SET_NO": 999, "REV_AT_EPOCH": 4945, "BSTAR": 0, "MEAN_MOTION_DOT": 9.4e-07, "MEAN_MOTION_DDOT": 0}, "tle": {"line1": "1 27438U 02027A   25342.50019985  .00000094  00000+0  00000+0 0  9999", "line2": "2 27438   6.2751  72.1034 0002895 189.9537 218.3132  1.00271271 49453"}}, "geometry": {"type": "Point", "coordinates": [56.59657659685003, -1.6657756411417786]}}, {"type": "Feature", "properties": {"norad_id": 27445, "name": "GALAXY 3C (G-3C)", "group": "intelsat", "lat": 1.0408971429573857, "lon": 98.79577112284971, "alt_km": 35785.46429186455, "timestamp": "2025-12-09T07:41:32.870852+00:00", "meta": {"OBJECT_NAME": "GALAXY 3C (G-3C)", "OBJECT_ID": "2002-030A", "EPOCH": "2025-12-08T21:42:47.389824", "MEAN_MOTION": 1.00270912, "ECCENTRICITY": 0.00011486, "INCLINATION": 3.2547, "RA_OF_ASC_NODE": 80.5441, "ARG_OF_PERICENTER": 99.2738, "MEAN_ANOMALY": 128.9213, "EPHEMERIS_TYPE": 0, "CLASSIFICATION_TYPE": "U", "NORAD_CAT_ID": 27445, "ELEMENT_SET_NO": 999, "REV_AT_EPOCH": 4458, "BSTAR": 0, "MEAN_MOTION_DOT": -1.51e-06, "MEAN_MOTION_DDOT": 0}, "tle": {"line1": "1 27445U 02030A   25342.90471516 -.00000151  00000+0  00000+0 0  9992", "line2": "2 27445   3.2547  80.5441 0001148  99.2738 128.9213  1.00270912 44588"}}, "geometry": {"type": "Point", "coordinates": [98.79577112284971, 1.0408971429573857]}}, {"type": "Feature", "properties": {"norad_id": 27513, "name": "INTELSAT 906 (IS-906)", "group": "intelsat", "lat": -0.2577302952627449, "lon": -102.18100088133207, "alt_km": 35760.739091134295, "timestamp": "2025-12-09T07:41:32.870880+00:00", "meta": {"OBJECT_NAME": "INTELSAT 906 (IS-906)", "OBJECT_ID": "2002-041A", "EPOCH": "2025-12-08T20:45:27.235584", "MEAN_MOTION": 1.00270855, "ECCENTRICITY": 0.00060972, "INCLINATION": 5.3189, "RA_OF_ASC_NODE": 75.2776, "ARG_OF_PERICENTER": 189.6707, "MEAN_ANOMALY": 188.4156, "EPHEMERIS_TYPE": 0, "CLASSIFICATION_TYPE": "U", "NORAD_CAT_ID": 27513, "ELEMENT_SET_NO": 999, "REV_AT_EPOCH": 8512, "BSTAR": 0, "MEAN_MOTION_DOT": 1.4e-07, "MEAN_MOTION_DDOT": 0}, "tle": {"line1": "1 27513U 02041A   25342.86489856  .00000014  00000+0  00000+0 0  9998", "line2": "2 27513   5.3189  75.2776 0006097 189.6707 188.4156  1.00270855 85127"}}, "geometry": {"type": "Point", "coordinates": [-102.18100088133207, -0.2577302952627449]}}, {"type": "Feature", "properties": {"norad_id": 27954, "name": "GALAXY 13 (HORIZONS-1)", "group": "intelsat", "lat": -0.6110120797382025, "lon": 43.71534219060519, "alt_km": 35794.551547876246, "timestamp": "2025-12-09T07:41:32.870897+00:00", "meta": {"OBJECT_NAME": "GALAXY 13 (HORIZONS-1)", "OBJECT_ID": "2003-044A", "EPOCH": "2025-12-08T16:18:51.670944", "MEAN_MOTION": 1.00269733, "ECCENTRICITY": 0.00020302, "INCLINATION": 0.9249, "RA_OF_ASC_NODE": 86.5233, "ARG_OF_PERICENTER": 160.3952, "MEAN_ANOMALY": 285.4875, "EPHEMERIS_TYPE": 0, "CLASSIFICATION_TYPE": "U", "NORAD_CAT_ID": 27954, "ELEMENT_SET_NO": 999, "REV_AT_EPOCH": 4466, "BSTAR": 0, "MEAN_MOTION_DOT": 1.35e-06, "MEAN_MOTION_DDOT": 0}, "tle": {"line1": "1 27954U 03044A   25342.67976471  .00000135  00000+0  00000+0 0  9998", "line2": "2 27954   0.9249  86.5233 0002030 160.3952 285.4875  1.00269733 44661"}}, "geometry": {"type": "Point", "coordinates": [43.71534219060519, -0.6110120797382025]}}, {"type": "Feature", "properties": {"norad_id": 28358, "name": "INTELSAT 10-02", "group": "intelsat", "lat": 0.0142600191213796, "lon": -167.292361442066, "alt_km": 35787.2735191833, "timestamp": "2025-12-09T07:41:32.870910+00:00", "meta": {"OBJECT_NAME": "INTELSAT 10-02", "OBJECT_ID": "2004-022A", "EPOCH": "2025-12-08T22:09:37.319040", "MEAN_MOTION": 1.00271845, "ECCENTRICITY": 0.00013025, "INCLINATION": 0.0314, "RA_OF_ASC_NODE": 71.4488, "ARG_OF_PERICENTER": 224.368, "MEAN_ANOMALY": 113.5358, "EPHEMERIS_TYPE": 0, "CLASSIFICATION_TYPE": "U", "NORAD_CAT_ID": 28358, "ELEMENT_SET_NO": 999, "REV_AT_EPOCH": 7864, "BSTAR": 0, "MEAN_MOTION_DOT": -9e-08, "MEAN_MOTION_DDOT": 0}, "tle": {"line1": "1 28358U 04022A   25342.92334860 -.00000009  00000+0  00000+0 0  9993", "line2": "2 28358   0.0314  71.4488 0001302 224.3680 113.5358  1.00271845 78648"}}, "geometry": {"type": "Point", "coordinates": [-167.292361442066, 0.0142600191213796]}}, {"type": "Feature", "properties": {"norad_id": 28626, "name": "XM-3 (RHYTHM)", "group": "intelsat", "lat": -0.15341038693664344, "lon": -35.753707326104724, "alt_km": 36154.36565781237, "timestamp": "2025-12-09T07:41:32.870923+00:00", "meta": {"OBJECT_NAME": "XM-3 (RHYTHM)", "OBJECT_ID": "2005-008A", "EPOCH": "2025-12-08T22:47:33.686016", "MEAN_MOTION": 0.98953898, "ECCENTRICITY": 0.00013439, "INCLINATION": 0.1649, "RA_OF_ASC_NODE": 81.1634, "ARG_OF_PERICENTER": 263.2818, "MEAN_ANOMALY": 207.7073, "EPHEMERIS_TYPE": 0, "CLASSIFICATION_TYPE": "U", "NORAD_CAT_ID": 28626, "ELEMENT_SET_NO": 999, "REV_AT_EPOCH": 4071, "BSTAR": 0, "MEAN_MOTION_DOT": -2.48e-06, "MEAN_MOTION_DDOT": 0}, "tle": {"line1": "1 28626U 05008A   25342.94969544 -.00000248  00000+0  00000+0 0  9996", "line2": "2 28626   0.1649  81.1634 0001343 263.2818 207.7073  0.98953898 40717"}}, "geometry": {"type": "Point", "coordinates": [-35.753707326104724, -0.15341038693664344]}}]}